LEMUR-2-ANDIS           
1 42838U 17042P   26068.55941107  .00023598  00000+0  79875-3 0  9998
2 42838  97.3659 249.7950 0009101   4.3248 355.8070 15.30557934473198
STARLINK-34009          
1 63849U 25093P   26068.19395938  .00039188  00000+0  14257-2 0  9997
2 63849  43.0018  77.4691 0001373 265.9640  94.1055 15.27586801 47938
